{"type": "FeatureCollection", "features": [ {"type": "Feature", "properties": {"norad_id": 29973, "name": "FENGYUN 1C DEB", "group": "fengyun-1c-debris", "lat": 31.840109623220954, "lon": 165.81707200532395, "alt_km": 829.5754330265818, "timestamp": "2025-12-05T14:45:15.571811+00:00", "meta": {"OBJECT_NAME": "FENGYUN 1C DEB", "OBJECT_ID": "1999-025KX", "EPOCH": "2025-12-03T11:36:24.616800", "MEAN_MOTION": 14.06504286, "ECCENTRICITY": 0.00589397, "INCLINATION": 98.8423, "RA_OF_ASC_NODE": 338.1878, "ARG_OF_PERICENTER": 174.856, "MEAN_ANOMALY": 348.1066, "EPHEMERIS_TYPE": 0, "CLASSIFICATION_TYPE": "U", "NORAD_CAT_ID": 29973, "ELEMENT_SET_NO": 999, "REV_AT_EPOCH": 96588, "BSTAR": 0.00086793758, "MEAN_MOTION_DOT": 1.416e-05, "MEAN_MOTION_DDOT": 0}, "tle": {"line1": "1 29973U 99025KX  25337.48361825  .00001416  00000+0  86794-3 0  9990", "line2": "2 29973  98.8423 338.1878 0058939 174.8560 348.1066 14.06504286965889"}}, "geometry": {"type": "Point", "coordinates": [165.81707200532395, 31.840109623220954]}}, {"type": "Feature", "properties": {"norad_id": 29974, "name": "FENGYUN 1C DEB", "group": "fengyun-1c-debris", "lat": 25.072005685088172, "lon": -111.98397404025314, "alt_km": 821.1902830881772, "timestamp": "2025-12-05T14:45:15.571821+00:00", "meta": {"OBJECT_NAME": "FENGYUN 1C DEB", "OBJECT_ID": "1999-025KY", "EPOCH": "2025-12-04T04:13:13.867680", "MEAN_MOTION": 14.14788587, "ECCENTRICITY": 0.00473228, "INCLINATION": 98.8954, "RA_OF_ASC_NODE": 62.3806, "ARG_OF_PERICENTER": 106.2426, "MEAN_ANOMALY": 283.1754, "EPHEMERIS_TYPE": 0, "CLASSIFICATION_TYPE": "U", "NORAD_CAT_ID": 29974, "ELEMENT_SET_NO": 999, "REV_AT_EPOCH": 96804, "BSTAR": 0.0023723351, "MEAN_MOTION_DOT": 4.581e-05, "MEAN_MOTION_DDOT": 0}, "tle": {"line1": "1 29974U 99025KY  25338.17585495  .00004581  00000+0  23723-2 0  9997", "line2": "2 29974  98.8954  62.3806 0047322 106.2426 283.1754 14.14788587968040"}}, "geometry": {"type": "Point", "coordinates": [-111.98397404025314, 25.072005685088172]}}, {"type": "Feature", "properties": {"norad_id": 29975, "name": "FENGYUN 1C DEB", "group": "fengyun-1c-debris", "lat": -40.05111849375496, "lon": -167.3963659996206, "alt_km": 989.4425186729077, "timestamp": "2025-12-05T14:45:15.571831+00:00", "meta": {"OBJECT_NAME": "FENGYUN 1C DEB", "OBJECT_ID": "1999-025KZ", "EPOCH": "2025-12-04T15:55:45.928992", "MEAN_MOTION": 13.98023029, "ECCENTRICITY": 0.0114127, "INCLINATION": 99.341, "RA_OF_ASC_NODE": 19.5891, "ARG_OF_PERICENTER": 35.7342, "MEAN_ANOMALY": 81.1761, "EPHEMERIS_TYPE": 0, "CLASSIFICATION_TYPE": "U", "NORAD_CAT_ID": 29975, "ELEMENT_SET_NO": 999, "REV_AT_EPOCH": 96324, "BSTAR": 0.00018748, "MEAN_MOTION_DOT": 2.35e-06, "MEAN_MOTION_DDOT": 0}, "tle": {"line1": "1 29975U 99025KZ  25338.66372603  .00000235  00000+0  18748-3 0  9991", "line2": "2 29975  99.3410  19.5891 0114127  35.7342  81.1761 13.98023029963248"}}, "geometry": {"type": "Point", "coordinates": [-167.3963659996206, -40.05111849375496]}}, {"type": "Feature", "properties": {"norad_id": 29976, "name": "FENGYUN 1C DEB", "group": "fengyun-1c-debris", "lat": 37.0668612200103, "lon": -29.69628322907039, "alt_km": 1040.8123689689137, "timestamp": "2025-12-05T14:45:15.571841+00:00", "meta": {"OBJECT_NAME": "FENGYUN 1C DEB", "OBJECT_ID": "1999-025LA", "EPOCH": "2025-12-04T11:50:39.708096", "MEAN_MOTION": 13.98097701, "ECCENTRICITY": 0.0267518, "INCLINATION": 98.9179, "RA_OF_ASC_NODE": 336.0245, "ARG_OF_PERICENTER": 262.438, "MEAN_ANOMALY": 252.8612, "EPHEMERIS_TYPE": 0, "CLASSIFICATION_TYPE": "U", "NORAD_CAT_ID": 29976, "ELEMENT_SET_NO": 999, "REV_AT_EPOCH": 96221, "BSTAR": 0.00040272, "MEAN_MOTION_DOT": 7.31e-06, "MEAN_MOTION_DDOT": 0}, "tle": {"line1": "1 29976U 99025LA  25338.49351514  .00000731  00000+0  40272-3 0  9999", "line2": "2 29976  98.9179 336.0245 0267518 262.4380 252.8612 13.98097701962216"}}, "geometry": {"type": "Point", "coordinates": [-29.69628322907039, 37.0668612200103]}}, {"type": "Feature", "properties": {"norad_id": 29977, "name": "FENGYUN 1C DEB", "group": "fengyun-1c-debris", "lat": 31.54778215920339, "lon": 27.38817122180895, "alt_km": 933.0632734408964, "timestamp": "2025-12-05T14:45:15.571852+00:00", "meta": {"OBJECT_NAME": "FENGYUN 1C DEB", "OBJECT_ID": "1999-025LB", "EPOCH": "2025-12-04T14:22:59.594304", "MEAN_MOTION": 14.05030377, "ECCENTRICITY": 0.01288, "INCLINATION": 98.3967, "RA_OF_ASC_NODE": 201.245, "ARG_OF_PERICENTER": 280.1888, "MEAN_ANOMALY": 135.4786, "EPHEMERIS_TYPE": 0, "CLASSIFICATION_TYPE": "U", "NORAD_CAT_ID": 29977, "ELEMENT_SET_NO": 999, "REV_AT_EPOCH": 96246, "BSTAR": 0.0025351, "MEAN_MOTION_DOT": 4.359e-05, "MEAN_MOTION_DDOT": 0}, "tle": {"line1": "1 29977U 99025LB  25338.59930086  .00004359  00000+0  25351-2 0  9998", "line2": "2 29977  98.3967 201.2450 0128800 280.1888 135.4786 14.05030377962467"}}, "geometry": {"type": "Point", "coordinates": [27.38817122180895, 31.54778215920339]}}, {"type": "Feature", "properties": {"norad_id": 29978, "name": "FENGYUN 1C DEB", "group": "fengyun-1c-debris", "lat": 70.39044059484881, "lon": -123.20664786448255, "alt_km": 855.6031810854984, "timestamp": "2025-12-05T14:45:15.571862+00:00", "meta": {"OBJECT_NAME": "FENGYUN 1C DEB", "OBJECT_ID": "1999-025LC", "EPOCH": "2025-12-04T14:53:23.786880", "MEAN_MOTION": 13.95905083, "ECCENTRICITY": 0.0076926, "INCLINATION": 99.0628, "RA_OF_ASC_NODE": 29.2002, "ARG_OF_PERICENTER": 74.2342, "MEAN_ANOMALY": 78.5395, "EPHEMERIS_TYPE": 0, "CLASSIFICATION_TYPE": "U", "NORAD_CAT_ID": 29978, "ELEMENT_SET_NO": 999, "REV_AT_EPOCH": 96203, "BSTAR": 0.00025031, "MEAN_MOTION_DOT": 3.08e-06, "MEAN_MOTION_DDOT": 0}, "tle": {"line1": "1 29978U 99025LC  25338.62041420  .00000308  00000+0  25031-3 0  9994", "line2": "2 29978  99.0628  29.2002 0076926  74.2342  78.5395 13.95905083962038"}}, "geometry": {"type": "Point", "coordinates": [-123.20664786448255, 70.39044059484881]}}, {"type": "Feature", "properties": {"norad_id": 29979, "name": "FENGYUN 1C DEB", "group": "fengyun-1c-debris", "lat": 70.16886207004421, "lon": -20.956501278221022, "alt_km": 826.4492974089444, "timestamp": "2025-12-05T14:45:15.571872+00:00", "meta": {"OBJECT_NAME": "FENGYUN 1C DEB", "OBJECT_ID": "1999-025LD", "EPOCH": "2025-12-04T15:24:46.372032", "MEAN_MOTION": 14.25936566, "ECCENTRICITY": 0.0107149, "INCLINATION": 98.371, "RA_OF_ASC_NODE": 2.2117, "ARG_OF_PERICENTER": 186.6915, "MEAN_ANOMALY": 296.7816, "EPHEMERIS_TYPE": 0, "CLASSIFICATION_TYPE": "U", "NORAD_CAT_ID": 29979, "ELEMENT_SET_NO": 999, "REV_AT_EPOCH": 97958, "BSTAR": 0.0007928, "MEAN_MOTION_DOT": 1.966e-05, "MEAN_MOTION_DDOT": 0}, "tle": {"line1": "1 29979U 99025LD  25338.64220338  .00001966  00000+0  79280-3 0  9990", "line2": "2 29979  98.3710   2.2117 0107149 186.6915 296.7816 14.25936566979581"}}, "geometry": {"type": "Point", "coordinates": [-20.956501278221022, 70.16886207004421]}}, {"type": "Feature", "properties": {"norad_id": 29980, "name": "FENGYUN 1C DEB", "group": "fengyun-1c-debris", "lat": 34.72770393490458, "lon": -24.85400575783779, "alt_km": 904.0095858000268, "timestamp": "2025-12-05T14:45:15.571882+00:00", "meta": {"OBJECT_NAME": "FENGYUN 1C DEB", "OBJECT_ID": "1999-025LE", "EPOCH": "2025-12-04T10:59:54.103776", "MEAN_MOTION": 14.06307408, "ECCENTRICITY": 0.0086724, "INCLINATION": 98.5517, "RA_OF_ASC_NODE": 148.0666, "ARG_OF_PERICENTER": 271.4979, "MEAN_ANOMALY": 142.3256, "EPHEMERIS_TYPE": 0, "CLASSIFICATION_TYPE": "U", "NORAD_CAT_ID": 29980, "ELEMENT_SET_NO": 999, "REV_AT_EPOCH": 96876, "BSTAR": 0.0002653, "MEAN_MOTION_DOT": 4.11e-06, "MEAN_MOTION_DDOT": 0}, "tle": {"line1": "1 29980U 99025LE  25338.45826509  .00000411  00000+0  26530-3 0  9997", "line2": "2 29980  98.5517 148.0666 0086724 271.4979 142.3256 14.06307408968764"}}, "geometry": {"type": "Point", "coordinates": [-24.85400575783779, 34.72770393490458]}}, {"type": "Feature", "properties": {"norad_id": 29982, "name": "FENGYUN 1C DEB", "group": "fengyun-1c-debris", "lat": 77.02622949839818, "lon": 113.86131733402834, "alt_km": 719.9048849079618, "timestamp": "2025-12-05T14:45:15.571892+00:00", "meta": {"OBJECT_NAME": "FENGYUN 1C DEB", "OBJECT_ID": "1999-025LG", "EPOCH": "2025-12-04T10:49:03.445248", "MEAN_MOTION": 14.66779173, "ECCENTRICITY": 0.0122243, "INCLINATION": 99.4012, "RA_OF_ASC_NODE": 158.5121, "ARG_OF_PERICENTER": 313.6092, "MEAN_ANOMALY": 103.3215, "EPHEMERIS_TYPE": 0, "CLASSIFICATION_TYPE": "U", "NORAD_CAT_ID": 29982, "ELEMENT_SET_NO": 999, "REV_AT_EPOCH": 162, "BSTAR": 0.0014023, "MEAN_MOTION_DOT": 8.683e-05, "MEAN_MOTION_DDOT": 0}, "tle": {"line1": "1 29982U 99025LG  25338.45073432  .00008683  00000+0  14023-2 0  9990", "line2": "2 29982  99.4012 158.5121 0122243 313.6092 103.3215 14.66779173  1623"}}, "geometry": {"type": "Point", "coordinates": [113.86131733402834, 77.02622949839818]}}, {"type": "Feature", "properties": {"norad_id": 29985, "name": "FENGYUN 1C DEB", "group": "fengyun-1c-debris", "lat": -17.519475447437788, "lon": -2.3276547834370267, "alt_km": 870.8335835510661, "timestamp": "2025-12-05T14:45:15.571903+00:00", "meta": {"OBJECT_NAME": "FENGYUN 1C DEB", "OBJECT_ID": "1999-025LK", "EPOCH": "2025-12-04T15:32:07.271232", "MEAN_MOTION": 14.10321436, "ECCENTRICITY": 0.002777, "INCLINATION": 98.711, "RA_OF_ASC_NODE": 353.9612, "ARG_OF_PERICENTER": 232.4991, "MEAN_ANOMALY": 240.4005, "EPHEMERIS_TYPE": 0, "CLASSIFICATION_TYPE": "U", "NORAD_CAT_ID": 29985, "ELEMENT_SET_NO": 999, "REV_AT_EPOCH": 97234, "BSTAR": 0.00012845, "MEAN_MOTION_DOT": 1.86e-06, "MEAN_MOTION_DDOT": 0}, "tle": {"line1": "1 29985U 99025LK  25338.64730638  .00000186  00000+0  12845-3 0  9993", "line2": "2 29985  98.7110 353.9612 0027770 232.4991 240.4005 14.10321436972348"}}, "geometry": {"type": "Point", "coordinates": [-2.3276547834370267, -17.519475447437788]}}]}